{
    "links": {
        "self": "http://www.neowsapp.com/rest/v1/neo/54096093?api_key=iIulBulltgU6a56xZRHN4H3l9WmuAYTsLGpBGhQ2"
    },
    "id": "54096093",
    "neo_reference_id": "54096093",
    "name": "(2020 WD5)",
    "designation": "2020 WD5",
    "nasa_jpl_url": "http://ssd.jpl.nasa.gov/sbdb.cgi?sstr=54096093",
    "absolute_magnitude_h": 22.215,
    "estimated_diameter": {
        "kilometers": {
            "estimated_diameter_min": 0.0958418033,
            "estimated_diameter_max": 0.2143087873
        },
        "meters": {
            "estimated_diameter_min": 95.8418033152,
            "estimated_diameter_max": 214.3087872988
        },
        "miles": {
            "estimated_diameter_min": 0.0595533172,
            "estimated_diameter_max": 0.1331652655
        },
        "feet": {
            "estimated_diameter_min": 314.4416219885,
            "estimated_diameter_max": 703.1128417215
        }
    },
    "is_potentially_hazardous_asteroid": false,
    "close_approach_data": [
        {
            "close_approach_date": "2020-12-03",
            "close_approach_date_full": "2020-Dec-03 20:27",
            "epoch_date_close_approach": 1607027220000,
            "relative_velocity": {
                "kilometers_per_second": "30.3746545907",
                "kilometers_per_hour": "109348.7565265132",
                "miles_per_hour": "67945.0648539326"
            },
            "miss_distance": {
                "astronomical": "0.0434900974",
                "lunar": "16.9176478886",
                "kilometers": "6506025.937132538",
                "miles": "4042657.0568355044"
            },
            "orbiting_body": "Earth"
        }
    ],
    "orbital_data": {
        "orbit_id": "2",
        "orbit_determination_date": "2020-12-02 05:29:30",
        "first_observation_date": "2020-11-18",
        "last_observation_date": "2020-12-01",
        "data_arc_in_days": 13,
        "observations_used": 20,
        "orbit_uncertainty": "9",
        "minimum_orbit_intersection": ".0434822",
        "jupiter_tisserand_invariant": "3.480",
        "epoch_osculation": "2459181.5",
        "eccentricity": ".8083981945459536",
        "semi_major_axis": "1.821172699307617",
        "inclination": "26.5947665291357",
        "ascending_node_longitude": "76.54010257541204",
        "orbital_period": "897.687388375172",
        "perihelion_distance": ".3489399772309585",
        "perihelion_argument": "110.2828241148361",
        "aphelion_distance": "3.293405421384275",
        "perihelion_time": "2459229.372865396464",
        "mean_anomaly": "340.8015220377316",
        "mean_motion": ".4010304752655661",
        "equinox": "J2000",
        "orbit_class": {
            "orbit_class_type": "APO",
            "orbit_class_description": "Near-Earth asteroid orbits which cross the Earth’s orbit similar to that of 1862 Apollo",
            "orbit_class_range": "a (semi-major axis) > 1.0 AU; q (perihelion) < 1.017 AU"
        }
    },
    "is_sentry_object": false
}